CCSDS_OMM_VERS = 2.0
CREATION_DATE  = 
ORIGINATOR     = 

OBJECT_NAME    = SILVERSAT
OBJECT_ID      = 1998-067XV
CENTER_NAME    = EARTH
REF_FRAME      = TEME
TIME_SYSTEM    = UTC
MEAN_ELEMENT_THEORY = SGP/SGP4

EPOCH          = 2026-02-09T11:07:16.169376
MEAN_MOTION    = 15.63257492
ECCENTRICITY   = .00023881
INCLINATION    = 51.6268
RA_OF_ASC_NODE = 208.4248
ARG_OF_PERICENTER = 250.2071
MEAN_ANOMALY   = 109.8666

EPHEMERIS_TYPE = 0
CLASSIFICATION_TYPE = U
NORAD_CAT_ID   = 66909
ELEMENT_SET_NO = 999
REV_AT_EPOCH   = 1076
BSTAR          = .14782522E-2
MEAN_MOTION_DOT = .140116E-2
MEAN_MOTION_DDOT = 0

CCSDS_OMM_VERS = 2.0
CREATION_DATE  = 
ORIGINATOR     = 

OBJECT_NAME    = ISS OBJECT XW
OBJECT_ID      = 1998-067XW
CENTER_NAME    = EARTH
REF_FRAME      = TEME
TIME_SYSTEM    = UTC
MEAN_ELEMENT_THEORY = SGP/SGP4

EPOCH          = 2026-02-09T11:30:28.158912
MEAN_MOTION    = 15.61785568
ECCENTRICITY   = .00011696
INCLINATION    = 51.6257
RA_OF_ASC_NODE = 208.5268
ARG_OF_PERICENTER = 282.2152
MEAN_ANOMALY   = 77.8710

EPHEMERIS_TYPE = 0
CLASSIFICATION_TYPE = U
NORAD_CAT_ID   = 66910
ELEMENT_SET_NO = 999
REV_AT_EPOCH   = 1076
BSTAR          = .12561801E-2
MEAN_MOTION_DOT = .111932E-2
MEAN_MOTION_DDOT = 0

CCSDS_OMM_VERS = 2.0
CREATION_DATE  = 
ORIGINATOR     = 

OBJECT_NAME    = ISS OBJECT XX
OBJECT_ID      = 1998-067XX
CENTER_NAME    = EARTH
REF_FRAME      = TEME
TIME_SYSTEM    = UTC
MEAN_ELEMENT_THEORY = SGP/SGP4

EPOCH          = 2026-02-09T10:23:28.161312
MEAN_MOTION    = 15.64526418
ECCENTRICITY   = .0002752
INCLINATION    = 51.6236
RA_OF_ASC_NODE = 208.2303
ARG_OF_PERICENTER = 274.4709
MEAN_ANOMALY   = 85.5971

EPHEMERIS_TYPE = 0
CLASSIFICATION_TYPE = U
NORAD_CAT_ID   = 66911
ELEMENT_SET_NO = 999
REV_AT_EPOCH   = 1075
BSTAR          = .16123215E-2
MEAN_MOTION_DOT = .161156E-2
MEAN_MOTION_DDOT = 0

CCSDS_OMM_VERS = 2.0
CREATION_DATE  = 
ORIGINATOR     = 

OBJECT_NAME    = ISS OBJECT XY
OBJECT_ID      = 1998-067XY
CENTER_NAME    = EARTH
REF_FRAME      = TEME
TIME_SYSTEM    = UTC
MEAN_ELEMENT_THEORY = SGP/SGP4

EPOCH          = 2026-02-09T11:30:29.236320
MEAN_MOTION    = 15.58871660
ECCENTRICITY   = .00006935
INCLINATION    = 51.6278
RA_OF_ASC_NODE = 209.2844
ARG_OF_PERICENTER = 174.2947
MEAN_ANOMALY   = 185.8053

EPHEMERIS_TYPE = 0
CLASSIFICATION_TYPE = U
NORAD_CAT_ID   = 66912
ELEMENT_SET_NO = 999
REV_AT_EPOCH   = 1074
BSTAR          = .10474232E-2
MEAN_MOTION_DOT = .83059E-3
MEAN_MOTION_DDOT = 0

CCSDS_OMM_VERS = 2.0
CREATION_DATE  = 
ORIGINATOR     = 

OBJECT_NAME    = ISS OBJECT XZ
OBJECT_ID      = 1998-067XZ
CENTER_NAME    = EARTH
REF_FRAME      = TEME
TIME_SYSTEM    = UTC
MEAN_ELEMENT_THEORY = SGP/SGP4

EPOCH          = 2026-02-09T15:05:50.232768
MEAN_MOTION    = 15.49551250
ECCENTRICITY   = .00109779
INCLINATION    = 51.6304
RA_OF_ASC_NODE = 211.0294
ARG_OF_PERICENTER = 95.9885
MEAN_ANOMALY   = 264.2355

EPHEMERIS_TYPE = 0
CLASSIFICATION_TYPE = U
NORAD_CAT_ID   = 67683
ELEMENT_SET_NO = 999
REV_AT_EPOCH   = 43
BSTAR          = .65946317E-3
MEAN_MOTION_DOT = .36841E-3
MEAN_MOTION_DDOT = 0

CCSDS_OMM_VERS = 2.0
CREATION_DATE  = 
ORIGINATOR     = 

OBJECT_NAME    = GXIBA-1
OBJECT_ID      = 1998-067YA
CENTER_NAME    = EARTH
REF_FRAME      = TEME
TIME_SYSTEM    = UTC
MEAN_ELEMENT_THEORY = SGP/SGP4

EPOCH          = 2026-02-09T15:03:59.658048
MEAN_MOTION    = 15.50067226
ECCENTRICITY   = .0012878
INCLINATION    = 51.6302
RA_OF_ASC_NODE = 211.0222
ARG_OF_PERICENTER = 91.2308
MEAN_ANOMALY   = 269.0156

EPHEMERIS_TYPE = 0
CLASSIFICATION_TYPE = U
NORAD_CAT_ID   = 67684
ELEMENT_SET_NO = 999
REV_AT_EPOCH   = 43
BSTAR          = .11566604E-2
MEAN_MOTION_DOT = .66473E-3
MEAN_MOTION_DDOT = 0

CCSDS_OMM_VERS = 2.0
CREATION_DATE  = 
ORIGINATOR     = 

OBJECT_NAME    = LEOPARD
OBJECT_ID      = 1998-067YB
CENTER_NAME    = EARTH
REF_FRAME      = TEME
TIME_SYSTEM    = UTC
MEAN_ELEMENT_THEORY = SGP/SGP4

EPOCH          = 2026-02-09T15:05:25.265760
MEAN_MOTION    = 15.49654311
ECCENTRICITY   = .00129258
INCLINATION    = 51.6303
RA_OF_ASC_NODE = 211.0275
ARG_OF_PERICENTER = 91.7097
MEAN_ANOMALY   = 268.5372

EPHEMERIS_TYPE = 0
CLASSIFICATION_TYPE = U
NORAD_CAT_ID   = 67685
ELEMENT_SET_NO = 999
REV_AT_EPOCH   = 43
BSTAR          = .75653133E-3
MEAN_MOTION_DOT = .42556E-3
MEAN_MOTION_DDOT = 0

CCSDS_OMM_VERS = 2.0
CREATION_DATE  = 
ORIGINATOR     = 

OBJECT_NAME    = ISS OBJECT YC
OBJECT_ID      = 1998-067YC
CENTER_NAME    = EARTH
REF_FRAME      = TEME
TIME_SYSTEM    = UTC
MEAN_ELEMENT_THEORY = SGP/SGP4

EPOCH          = 2026-02-09T13:32:17.839968
MEAN_MOTION    = 15.49742032
ECCENTRICITY   = .00078067
INCLINATION    = 51.6309
RA_OF_ASC_NODE = 211.3462
ARG_OF_PERICENTER = 68.9547
MEAN_ANOMALY   = 291.2276

EPHEMERIS_TYPE = 0
CLASSIFICATION_TYPE = U
NORAD_CAT_ID   = 67686
ELEMENT_SET_NO = 999
REV_AT_EPOCH   = 42
BSTAR          = .85852778E-3
MEAN_MOTION_DOT = .48444E-3
MEAN_MOTION_DDOT = 0

CCSDS_OMM_VERS = 2.0
CREATION_DATE  = 
ORIGINATOR     = 

OBJECT_NAME    = CORAL
OBJECT_ID      = 1998-067YD
CENTER_NAME    = EARTH
REF_FRAME      = TEME
TIME_SYSTEM    = UTC
MEAN_ELEMENT_THEORY = SGP/SGP4

EPOCH          = 2026-02-09T13:32:43.570752
MEAN_MOTION    = 15.49607277
ECCENTRICITY   = .0007921
INCLINATION    = 51.6308
RA_OF_ASC_NODE = 211.3479
ARG_OF_PERICENTER = 70.3051
MEAN_ANOMALY   = 289.8792

EPHEMERIS_TYPE = 0
CLASSIFICATION_TYPE = U
NORAD_CAT_ID   = 67687
ELEMENT_SET_NO = 999
REV_AT_EPOCH   = 34
BSTAR          = .70193954E-3
MEAN_MOTION_DOT = .39291E-3
MEAN_MOTION_DDOT = 0

CCSDS_OMM_VERS = 2.0
CREATION_DATE  = 
ORIGINATOR     = 

OBJECT_NAME    = ISS OBJECT YE
OBJECT_ID      = 1998-067YE
CENTER_NAME    = EARTH
REF_FRAME      = TEME
TIME_SYSTEM    = UTC
MEAN_ELEMENT_THEORY = SGP/SGP4

EPOCH          = 2026-02-09T15:05:12.749856
MEAN_MOTION    = 15.49715086
ECCENTRICITY   = .00077809
INCLINATION    = 51.6309
RA_OF_ASC_NODE = 211.0272
ARG_OF_PERICENTER = 68.9657
MEAN_ANOMALY   = 291.2163

EPHEMERIS_TYPE = 0
CLASSIFICATION_TYPE = U
NORAD_CAT_ID   = 67688
ELEMENT_SET_NO = 999
REV_AT_EPOCH   = 35
BSTAR          = .8061098E-3
MEAN_MOTION_DOT = .45397E-3
MEAN_MOTION_DDOT = 0

