SILVERSAT               
1 66909U 98067XV  26040.46338159  .00140116  00000+0  14783-2 0  9998
2 66909  51.6268 208.4248 0002388 250.2071 109.8666 15.63257492 10760
ISS OBJECT XW           
1 66910U 98067XW  26040.47949258  .00111932  00000+0  12562-2 0  9996
2 66910  51.6257 208.5268 0001169 282.2152  77.8710 15.61785568 10766
ISS OBJECT XX           
1 66911U 98067XX  26040.43296483  .00161156  00000+0  16123-2 0  9998
2 66911  51.6236 208.2303 0002752 274.4709  85.5971 15.64526418 10755
ISS OBJECT XY           
1 66912U 98067XY  26040.47950505  .00083059  00000+0  10474-2 0  9993
2 66912  51.6278 209.2844 0000693 174.2947 185.8053 15.58871660 10745
ISS OBJECT XZ           
1 67683U 98067XZ  26040.62905362  .00036841  00000+0  65946-3 0  9999
2 67683  51.6304 211.0294 0010977  95.9885 264.2355 15.49551250   439
GXIBA-1                 
1 67684U 98067YA  26040.62777382  .00066473  00000+0  11567-2 0  9992
2 67684  51.6302 211.0222 0012878  91.2308 269.0156 15.50067226   439
LEOPARD                 
1 67685U 98067YB  26040.62876465  .00042556  00000+0  75653-3 0  9998
2 67685  51.6303 211.0275 0012925  91.7097 268.5372 15.49654311   431
ISS OBJECT YC           
1 67686U 98067YC  26040.56409537  .00048444  00000+0  85853-3 0  9999
2 67686  51.6309 211.3462 0007806  68.9547 291.2276 15.49742032   420
CORAL                   
1 67687U 98067YD  26040.56439318  .00039291  00000+0  70194-3 0  9992
2 67687  51.6308 211.3479 0007921  70.3051 289.8792 15.49607277   341
ISS OBJECT YE           
1 67688U 98067YE  26040.62861979  .00045397  00000+0  80611-3 0  9991
2 67688  51.6309 211.0272 0007780  68.9657 291.2163 15.49715086   357
